NORAD_CAT_ID,OBJECT_NAME,OBJECT_TYPE,EPOCH,MEAN_MOTION,ECCENTRICITY,INCLINATION,RA_OF_ASC_NODE,ARG_OF_PERICENTER,MEAN_ANOMALY,BSTAR,MEAN_MOTION_DOT,MEAN_MOTION_DDOT,TLE_LINE0,TLE_LINE1,TLE_LINE2,SEMIMAJOR_AXIS,PERIOD,APOGEE,PERIGEE,DECAYED
51963.0,STARLINK-3675,PAYLOAD,2023-11-23 19:14:41,15.08019093,0.0001613,53.0535,183.9689,139.9325,220.1784,6.8093e-05,7.74e-06,0.0,0 STARLINK-3675,1 51963U 22025H   23327.80187013  .00000774  00000-0  68093-4 0  9998,2 51963  53.0535 183.9689 0001613 139.9325 220.1784 15.08019093 95929,6920.391,95.49,543.372,541.139,0.0
51963.0,STARLINK-3675,PAYLOAD,2023-11-23 20:50:07,15.08025741,0.0002435,53.0538,183.6687,145.6691,214.4456,-5.1013e-05,-1.08e-05,0.0,0 STARLINK-3675,1 51963U 22025H   23327.86814162 -.00001080  00000-0 -51013-4 0  9993,2 51963  53.0538 183.6687 0002435 145.6691 214.4456 15.08025741 94849,6920.37,95.489,543.92,540.55,0.0
51963.0,STARLINK-3675,PAYLOAD,2023-11-24 14:19:55,15.08030267,0.0001491,53.0537,180.3932,106.257,253.8583,-9.3442e-06,-4.31e-06,0.0,0 STARLINK-3675,1 51963U 22025H   23328.59717080 -.00000431  00000-0 -93442-5 0  9997,2 51963  53.0537 180.3932 0001491 106.2570 253.8583 15.08030267 94954,6920.357,95.489,543.253,541.19,0.0
51963.0,STARLINK-3675,PAYLOAD,2023-11-24 19:06:14,15.08033049,0.000155,53.0533,179.5007,80.1516,279.9648,7.0631e-05,8.14e-06,0.0,0 STARLINK-3675,1 51963U 22025H   23328.79599605  .00000814  00000-0  70631-4 0  9997,2 51963  53.0533 179.5007 0001550  80.1516 279.9648 15.08033049 96076,6920.348,95.489,543.286,541.14,0.0
51963.0,STARLINK-3675,PAYLOAD,2023-11-24 20:41:40,15.08035056,0.0001491,53.053,179.202,90.9,269.2161,9.5147e-05,1.196e-05,0.0,0 STARLINK-3675,1 51963U 22025H   23328.86226951  .00001196  00000-0  95147-4 0  9999,2 51963  53.0530 179.2020 0001491  90.9000 269.2161 15.08035056 94997,6920.342,95.488,543.239,541.175,0.0
51963.0,STARLINK-3675,PAYLOAD,2023-11-25 09:25:10,15.08025155,0.0001656,53.0522,176.8139,116.4749,243.6411,0.00081742,0.00012461,0.0,0 STARLINK-3675,1 51963U 22025H   23329.39247871  .00012461  00000-0  81742-3 0  9994,2 51963  53.0522 176.8139 0001656 116.4749 243.6411 15.08025155 95072,6920.372,95.489,543.383,541.091,0.0
51963.0,STARLINK-3675,PAYLOAD,2023-11-25 20:33:12,15.08043002,0.0001585,53.0519,174.7259,107.6573,252.459,0.00044717,6.685e-05,0.0,0 STARLINK-3675,1 51963U 22025H   23329.85639339  .00006685  00000-0  44717-3 0  9991,2 51963  53.0519 174.7259 0001585 107.6573 252.4590 15.08043002 95141,6920.318,95.488,543.279,541.086,0.0
51963.0,STARLINK-3675,PAYLOAD,2023-11-25 23:44:04,15.080469,0.0001571,53.0519,174.1289,109.1208,250.9952,0.00050043,7.517e-05,0.0,0 STARLINK-3675,1 51963U 22025H   23329.98894096  .00007517  00000-0  50043-3 0  9992,2 51963  53.0519 174.1289 0001571 109.1208 250.9952 15.08046900 96253,6920.306,95.488,543.258,541.083,0.0
51963.0,STARLINK-3675,PAYLOAD,2023-11-26 18:49:18,15.0803267,0.0001642,53.0521,170.548,115.0796,245.0364,4.2024e-06,-2.21e-06,0.0,0 STARLINK-3675,1 51963U 22025H   23330.78424114 -.00000221  00000-0  42024-5 0  9990,2 51963  53.0521 170.5480 0001642 115.0796 245.0364 15.08032670 96370,6920.349,95.489,543.35,541.078,0.0
51963.0,STARLINK-3675,PAYLOAD,2023-11-26 20:24:44,15.08031215,0.0001528,53.0531,170.2499,106.2627,253.8531,-3.0474e-05,-7.6e-06,0.0,0 STARLINK-3675,1 51963U 22025H   23330.85051720 -.00000760  00000-0 -30474-4 0  9991,2 51963  53.0531 170.2499 0001528 106.2627 253.8531 15.08031215 95293,6920.354,95.489,543.276,541.161,0.0
51963.0,STARLINK-3675,PAYLOAD,2023-11-27 13:54:34,15.07958736,0.0001807,53.0546,166.9678,117.4238,242.6936,0.00099921,0.00015274,0.0,0 STARLINK-3675,1 51963U 22025H   23331.57956452  .00015274  00000-0  99921-3 0  9992,2 51963  53.0546 166.9678 0001807 117.4238 242.6936 15.07958736 95405,6920.575,95.493,543.691,541.19,0.0
51963.0,STARLINK-3675,PAYLOAD,2023-11-27 18:40:52,15.07994679,0.0001448,53.0542,166.0734,115.2704,244.8436,0.00045983,6.873e-05,0.0,0 STARLINK-3675,1 51963U 22025H   23331.77838190  .00006873  00000-0  45983-3 0  9996,2 51963  53.0542 166.0734 0001448 115.2704 244.8436 15.07994679 96529,6920.465,95.491,543.332,541.328,0.0
51963.0,STARLINK-3675,PAYLOAD,2023-11-27 20:16:18,15.07992306,0.0001421,53.0542,165.7753,112.6119,247.5021,0.00048874,7.323e-05,0.0,0 STARLINK-3675,1 51963U 22025H   23331.84465845  .00007323  00000-0  48874-3 0  9990,2 51963  53.0542 165.7753 0001421 112.6119 247.5021 15.07992306 95443,6920.473,95.491,543.321,541.354,0.0
51963.0,STARLINK-3675,PAYLOAD,2023-11-27 23:27:09,15.08028048,0.0001464,53.0541,165.1793,104.5849,255.5303,-5.3166e-05,-1.114e-05,0.0,0 STARLINK-3675,1 51963U 22025H   23331.97719794 -.00001114  00000-0 -53166-4 0  9994,2 51963  53.0541 165.1793 0001464 104.5849 255.5303 15.08028048 96556,6920.363,95.489,543.241,541.215,0.0
51963.0,STARLINK-3675,PAYLOAD,2023-11-28 20:07:49,15.08031315,0.000133,53.0541,161.3032,99.5735,260.5405,9.8557e-05,1.249e-05,0.0,0 STARLINK-3675,1 51963U 22025H   23332.83876721  .00001249  00000-0  98557-4 0  9994,2 51963  53.0541 161.3032 0001330  99.5735 260.5405 15.08031315 96683,6920.353,95.489,543.139,541.298,0.0
51963.0,STARLINK-3675,PAYLOAD,2023-11-29 19:59:22,15.08028666,0.0001277,53.0544,156.8295,89.0867,271.0269,7.9106e-05,9.46e-06,0.0,0 STARLINK-3675,1 51963U 22025H   23333.83289647  .00000946  00000-0  79106-4 0  9992,2 51963  53.0544 156.8295 0001277  89.0867 271.0269 15.08028666 96833,6920.361,95.489,543.11,541.343,0.0
51963.0,STARLINK-3675,PAYLOAD,2023-12-01 11:45:15,15.08033997,0.0001429,53.0551,149.3749,81.1494,278.9657,8.0932e-05,9.74e-06,0.0,0 STARLINK-3675,1 51963U 22025H   23335.48976678  .00000974  00000-0  80932-4 0  9992,2 51963  53.0551 149.3749 0001429  81.1494 278.9657 15.08033997 97088,6920.345,95.489,543.199,541.221,0.0
51963.0,STARLINK-3675,PAYLOAD,2023-12-01 18:07:00,15.08036041,0.0001469,53.0547,148.1814,79.6077,280.5078,9.726e-05,1.229e-05,0.0,0 STARLINK-3675,1 51963U 22025H   23335.75486432  .00001229  00000-0  97260-4 0  9992,2 51963  53.0547 148.1814 0001469  79.6077 280.5078 15.08036041 96039,6920.339,95.488,543.22,541.187,0.0
51963.0,STARLINK-3675,PAYLOAD,2023-12-02 14:47:40,15.08035615,0.0001448,53.0544,144.3028,94.4836,265.6319,5.6622e-05,5.96e-06,0.0,0 STARLINK-3675,1 51963U 22025H   23336.61643612  .00000596  00000-0  56622-4 0  9996,2 51963  53.0544 144.3028 0001448  94.4836 265.6319 15.08035615 96168,6920.34,95.488,543.207,541.203,0.0
51963.0,STARLINK-3675,PAYLOAD,2023-12-02 17:58:32,15.08036284,0.0001498,53.0553,143.7066,102.0366,258.0792,5.5336e-05,5.76e-06,0.0,0 STARLINK-3675,1 51963U 22025H   23336.74898485  .00000576  00000-0  55336-4 0  9999,2 51963  53.0553 143.7066 0001498 102.0366 258.0792 15.08036284 97279,6920.338,95.488,543.24,541.166,0.0
51963.0,STARLINK-3675,PAYLOAD,2023-12-03 11:28:21,15.0802422,0.0001432,53.0549,140.4248,101.359,258.7561,-5.3859e-05,-1.124e-05,0.0,0 STARLINK-3675,1 51963U 22025H   23337.47802159 -.00001124  00000-0 -53859-4 0  9993,2 51963  53.0549 140.4248 0001432 101.3590 258.7561 15.08024220 97389,6920.375,95.489,543.231,541.249,0.0
51963.0,STARLINK-3675,PAYLOAD,2023-12-03 14:39:13,15.0802085,0.0001551,53.0551,139.8276,109.4049,250.7108,-8.787e-05,-1.653e-05,0.0,0 STARLINK-3675,1 51963U 22025H   23337.61057455 -.00001653  00000-0 -87870-4 0  9997,2 51963  53.0551 139.8276 0001551 109.4049 250.7108 15.08020850 96311,6920.385,95.489,543.324,541.177,0.0
51963.0,STARLINK-3675,PAYLOAD,2023-12-04 09:44:27,15.0802342,0.0001572,53.0549,136.2453,108.6351,251.4809,-0.00011847,-2.13e-05,0.0,0 STARLINK-3675,1 51963U 22025H   23338.40587883 -.00002130  00000-0 -11847-3 0  9999,2 51963  53.0549 136.2453 0001572 108.6351 251.4809 15.08023420 96431,6920.377,95.489,543.33,541.155,0.0
51963.0,STARLINK-3675,PAYLOAD,2023-12-06 11:02:58,15.08032671,0.0001391,53.0542,127.0026,85.3983,274.7165,-1.3945e-05,-5.03e-06,0.0,0 STARLINK-3675,1 51963U 22025H   23340.46039720 -.00000503  00000-0 -13945-4 0  9994,2 51963  53.0542 127.0026 0001391  85.3983 274.7165 15.08032671 97835,6920.349,95.489,543.177,541.252,0.0
51963.0,STARLINK-3675,PAYLOAD,2023-12-06 14:13:50,15.08033989,0.0001376,53.0545,126.4064,84.9892,275.1255,-3.576e-06,-3.42e-06,0.0,0 STARLINK-3675,1 51963U 22025H   23340.59294541 -.00000342  00000-0 -35760-5 0  9993,2 51963  53.0545 126.4064 0001376  84.9892 275.1255 15.08033989 96769,6920.345,95.489,543.162,541.258,0.0
51963.0,STARLINK-3675,PAYLOAD,2023-12-06 20:35:34,15.08038255,0.0001389,53.0545,125.2131,85.0941,275.0207,2.9407e-05,1.72e-06,0.0,0 STARLINK-3675,1 51963U 22025H   23340.85804042  .00000172  00000-0  29407-4 0  9994,2 51963  53.0545 125.2131 0001389  85.0941 275.0207 15.08038255 96804,6920.332,95.488,543.158,541.236,0.0
51963.0,STARLINK-3675,PAYLOAD,2023-12-06 22:11:00,15.08032206,0.000139,53.0545,124.9147,84.653,275.4618,8.2054e-05,9.92e-06,0.0,0 STARLINK-3675,1 51963U 22025H   23340.92431406  .00000992  00000-0  82054-4 0  9999,2 51963  53.0545 124.9147 0001390  84.6530 275.4618 15.08032206 96819,6920.351,95.489,543.178,541.254,0.0
51963.0,STARLINK-3675,PAYLOAD,2023-12-08 09:10:36,15.08024585,0.00014,53.0548,118.3529,85.3649,274.75,-3.9611e-06,-3.48e-06,0.0,0 STARLINK-3675,1 51963U 22025H   23342.38237190 -.00000348  00000-0 -39611-5 0  9994,2 51963  53.0548 118.3529 0001400  85.3649 274.7500 15.08024585 98123,6920.374,95.489,543.208,541.27,0.0
51963.0,STARLINK-3675,PAYLOAD,2023-12-08 12:21:29,15.08027042,0.0001402,53.0548,117.7563,85.2596,274.8554,1.5303e-05,-4.8e-07,0.0,0 STARLINK-3675,1 51963U 22025H   23342.51491979 -.00000048  00000-0  15303-4 0  9993,2 51963  53.0548 117.7563 0001402  85.2596 274.8554 15.08027042 97058,6920.366,95.489,543.202,541.261,0.0
51963.0,STARLINK-3675,PAYLOAD,2023-12-08 18:43:13,15.08033097,0.000141,53.0548,116.5631,85.2455,274.8696,4.9565e-05,4.86e-06,0.0,0 STARLINK-3675,1 51963U 22025H   23342.78001467  .00000486  00000-0  49565-4 0  9993,2 51963  53.0548 116.5631 0001410  85.2455 274.8696 15.08033097 98183,6920.348,95.489,543.189,541.237,0.0
